NORAD_CAT_ID,OBJECT_NAME,OBJECT_TYPE,EPOCH,MEAN_MOTION,ECCENTRICITY,INCLINATION,RA_OF_ASC_NODE,ARG_OF_PERICENTER,MEAN_ANOMALY,BSTAR,MEAN_MOTION_DOT,MEAN_MOTION_DDOT,TLE_LINE0,TLE_LINE1,TLE_LINE2,SEMIMAJOR_AXIS,PERIOD,APOGEE,PERIGEE,DECAYED
55950.0,STARLINK-5911,PAYLOAD,2023-08-01 00:16:44,15.6991943,0.0003598,69.998,158.0063,265.166,94.9125,2.186e-05,2.416e-05,0.0,0 STARLINK-5911,1 55950U 23037AN  23213.01162330  .00002416  00000-0  21860-4 0  9990,2 55950  69.9980 158.0063 0003598 265.1660  94.9125 15.69919430 21911,6737.265,91.724,361.554,356.705,0.0
55950.0,STARLINK-5911,PAYLOAD,2023-08-01 06:23:46,15.69895642,0.0002713,69.9991,157.2908,267.4959,92.5926,-9.114e-06,-1.307e-05,0.0,0 STARLINK-5911,1 55950U 23037AN  23213.26651327 -.00001307  00000-0 -91140-5 0  9995,2 55950  69.9991 157.2908 0002713 267.4959  92.5926 15.69895642 21951,6737.333,91.726,361.025,357.37,0.0
55950.0,STARLINK-5911,PAYLOAD,2023-08-01 23:13:01,15.69910653,0.0003477,69.9986,155.3209,271.921,88.1588,1.9855e-05,2.174e-05,0.0,0 STARLINK-5911,1 55950U 23037AN  23213.96738080  .00002174  00000-0  19855-4 0  9997,2 55950  69.9986 155.3209 0003477 271.9210  88.1588 15.69910653 22064,6737.29,91.725,361.497,356.812,0.0
55950.0,STARLINK-5911,PAYLOAD,2023-08-02 12:58:47,15.69922045,0.0003557,69.9969,153.7079,266.2301,93.8488,1.289e-05,1.337e-05,0.0,0 STARLINK-5911,1 55950U 23037AN  23214.54082607  .00001337  00000-0  12890-4 0  9991,2 55950  69.9969 153.7079 0003557 266.2301  93.8488 15.69922045 22159,6737.257,91.724,361.518,356.726,0.0
55950.0,STARLINK-5911,PAYLOAD,2023-08-02 23:41:02,15.69935193,0.0003119,69.9986,152.4519,272.1891,87.8947,1.2715e-05,1.317e-05,0.0,0 STARLINK-5911,1 55950U 23037AN  23214.98683475  .00001317  00000-0  12715-4 0  9993,2 55950  69.9986 152.4519 0003119 272.1891  87.8947 15.69935193 22226,6737.219,91.724,361.186,356.983,0.0
55950.0,STARLINK-5911,PAYLOAD,2023-08-03 07:19:50,15.6990274,0.0002908,69.9986,151.5579,271.3177,88.7686,-2.334e-05,-3.015e-05,0.0,0 STARLINK-5911,1 55950U 23037AN  23215.30544591 -.00003015  00000-0 -23340-4 0  9990,2 55950  69.9986 151.5579 0002908 271.3177  88.7686 15.69902740 22272,6737.312,91.725,361.136,357.218,0.0
55950.0,STARLINK-5911,PAYLOAD,2023-08-03 22:37:20,15.69925872,0.0003195,69.9997,149.7681,278.1328,81.9505,-7.2432e-07,-3e-06,0.0,0 STARLINK-5911,1 55950U 23037AN  23215.94259702 -.00000300  00000-0 -72432-6 0  9999,2 55950  69.9997 149.7681 0003195 278.1328  81.9505 15.69925872 22376,6737.246,91.724,361.264,356.959,0.0
55950.0,STARLINK-5911,PAYLOAD,2023-08-04 23:05:21,15.69933533,0.0002711,69.9993,146.9011,263.0912,96.9976,1.7565e-06,-1e-08,0.0,0 STARLINK-5911,1 55950U 23037AN  23216.96205731 -.00000001  00000-0  17565-5 0  9997,2 55950  69.9993 146.9011 0002711 263.0912  96.9976 15.69933533 22532,6737.224,91.724,360.916,357.263,0.0
55950.0,STARLINK-5911,PAYLOAD,2023-08-05 05:12:23,15.69918491,0.0003524,69.9992,146.1834,282.5385,77.5416,-8.8205e-06,-1.273e-05,0.0,0 STARLINK-5911,1 55950U 23037AN  23217.21693371 -.00001273  00000-0 -88205-5 0  9999,2 55950  69.9992 146.1834 0003524 282.5385  77.5416 15.69918491 22573,6737.267,91.725,361.506,356.758,0.0
55950.0,STARLINK-5911,PAYLOAD,2023-08-06 04:08:39,15.6992239,0.0003507,69.9978,143.4974,271.8976,88.1818,1.7161e-06,-7e-08,0.0,0 STARLINK-5911,1 55950U 23037AN  23218.17268329 -.00000007  00000-0  17161-5 0  9992,2 55950  69.9978 143.4974 0003507 271.8976  88.1818 15.69922390 22724,6737.256,91.724,361.484,356.758,0.0
55950.0,STARLINK-5911,PAYLOAD,2023-08-07 01:33:10,15.69942357,0.0003752,69.998,140.9898,268.4538,91.6228,8.8762e-06,8.55e-06,0.0,0 STARLINK-5911,1 55950U 23037AN  23219.06470381  .00000855  00000-0  88762-5 0  9999,2 55950  69.9980 140.9898 0003752 268.4538  91.6228 15.69942357 22866,6737.199,91.723,361.592,356.536,0.0
55950.0,STARLINK-5911,PAYLOAD,2023-08-07 04:36:42,15.69917649,0.0003421,69.9972,140.6296,271.0532,89.0272,-1.4564e-05,-1.963e-05,0.0,0 STARLINK-5911,1 55950U 23037AN  23219.19215780 -.00001963  00000-0 -14564-4 0  9994,2 55950  69.9972 140.6296 0003421 271.0532  89.0272 15.69917649 22881,6737.27,91.725,361.439,356.83,0.0
55950.0,STARLINK-5911,PAYLOAD,2023-08-07 12:15:27,15.69920532,0.0003755,69.9984,139.7351,275.0426,85.0341,1.8862e-05,2.055e-05,0.0,0 STARLINK-5911,1 55950U 23037AN  23219.51073295  .00002055  00000-0  18862-4 0  9999,2 55950  69.9984 139.7351 0003755 275.0426  85.0341 15.69920532 22935,6737.261,91.724,361.656,356.597,0.0
55950.0,STARLINK-5911,PAYLOAD,2023-08-09 11:39:47,15.69891132,0.0003245,69.9988,134.1813,265.816,94.2665,7.142e-05,8.372e-05,0.0,0 STARLINK-5911,1 55950U 23037AN  23221.48596509  .00008372  00000-0  71420-4 0  9993,2 55950  69.9988 134.1813 0003245 265.8160  94.2665 15.69891132 23246,6737.345,91.726,361.397,357.024,0.0
55950.0,STARLINK-5911,PAYLOAD,2023-08-09 22:22:01,15.69928999,0.0003548,69.9987,132.928,263.0176,97.0616,1.6714e-05,1.798e-05,0.0,0 STARLINK-5911,1 55950U 23037AN  23221.93196463  .00001798  00000-0  16714-4 0  9998,2 55950  69.9987 132.9280 0003548 263.0176  97.0616 15.69928999 23319,6737.237,91.724,361.493,356.712,0.0
55950.0,STARLINK-5911,PAYLOAD,2023-08-11 00:21:49,15.69946104,0.0003231,69.9991,129.8827,261.4935,98.5895,-1.786e-05,-2.362e-05,0.0,0 STARLINK-5911,1 55950U 23037AN  23223.01515232 -.00002362  00000-0 -17860-4 0  9991,2 55950  69.9991 129.8827 0003231 261.4935  98.5895 15.69946104 23481,6737.188,91.723,361.23,356.876,0.0
55950.0,STARLINK-5911,PAYLOAD,2023-08-11 03:25:19,15.69934885,0.0003542,69.9972,129.5229,261.9291,98.1503,-9.1107e-06,-1.309e-05,0.0,0 STARLINK-5911,1 55950U 23037AN  23223.14258655 -.00001309  00000-0 -91107-5 0  9995,2 55950  69.9972 129.5229 0003542 261.9291  98.1503 15.69934885 23506,6737.22,91.724,361.472,356.699,0.0
55950.0,STARLINK-5911,PAYLOAD,2023-08-12 05:25:06,15.69925281,0.0003575,69.9978,126.478,266.4602,93.6185,2.0461e-06,3.3e-07,0.0,0 STARLINK-5911,1 55950U 23037AN  23224.22576993  .00000033  00000-0  20461-5 0  9999,2 55950  69.9978 126.4780 0003575 266.4602  93.6185 15.69925281 23676,6737.248,91.724,361.521,356.704,0.0
55950.0,STARLINK-5911,PAYLOAD,2023-08-13 18:07:09,15.69925873,0.0003274,69.9969,122.1799,268.0105,92.0716,3.262e-06,1.79e-06,0.0,0 STARLINK-5911,1 55950U 23037AN  23225.75497286  .00000179  00000-0  32620-5 0  9996,2 55950  69.9969 122.1799 0003274 268.0105  92.0716 15.69925873 23918,6737.246,91.724,361.317,356.905,0.0
55950.0,STARLINK-5911,PAYLOAD,2023-08-15 02:13:56,15.69927303,0.0003473,69.9969,118.4166,266.7946,93.2852,1.1273e-05,1.143e-05,0.0,0 STARLINK-5911,1 55950U 23037AN  23227.09302005  .00001143  00000-0  11273-4 0  9991,2 55950  69.9969 118.4166 0003473 266.7946  93.2852 15.69927303 24121,6737.242,91.724,361.447,356.767,0.0
55950.0,STARLINK-5911,PAYLOAD,2023-08-16 01:10:14,15.69923116,0.0003241,69.9971,115.7292,267.5821,92.5004,8.1281e-07,-1.15e-06,0.0,0 STARLINK-5911,1 55950U 23037AN  23228.04877661 -.00000115  00000-0  81281-6 0  9999,2 55950  69.9971 115.7292 0003241 267.5821  92.5004 15.69923116 24273,6737.254,91.724,361.303,356.935,0.0
55950.0,STARLINK-5911,PAYLOAD,2023-08-16 04:13:43,15.69932639,0.0002838,69.997,115.3706,280.9911,79.0966,1.7381e-05,1.878e-05,0.0,0 STARLINK-5911,1 55950U 23037AN  23228.17620313  .00001878  00000-0  17381-4 0  9997,2 55950  69.9970 115.3706 0002838 280.9911  79.0966 15.69932639 24297,6737.227,91.724,361.004,357.18,0.0
55950.0,STARLINK-5911,PAYLOAD,2023-08-16 17:59:30,15.69924505,0.0002795,69.9957,113.7624,279.3603,80.7277,1.7638e-05,1.909e-05,0.0,0 STARLINK-5911,1 55950U 23037AN  23228.74965568  .00001909  00000-0  17638-4 0  9994,2 55950  69.9957 113.7624 0002795 279.3603  80.7277 15.69924505 24382,6737.25,91.724,360.998,357.232,0.0
55950.0,STARLINK-5911,PAYLOAD,2023-08-17 15:24:02,15.69919722,0.0003283,69.9958,111.2509,258.8335,101.2492,1.0006e-05,9.9e-06,0.0,0 STARLINK-5911,1 55950U 23037AN  23229.64169310  .00000990  00000-0  10006-4 0  9996,2 55950  69.9958 111.2509 0003283 258.8335 101.2492 15.69919722 24524,6737.264,91.724,361.341,356.917,0.0
55950.0,STARLINK-5911,PAYLOAD,2023-08-19 01:02:34,15.69927012,0.0003662,69.9956,107.3092,268.5986,91.4791,9.3311e-06,9.09e-06,0.0,0 STARLINK-5911,1 55950U 23037AN  23231.04345604  .00000909  00000-0  93311-5 0  9996,2 55950  69.9956 107.3092 0003662 268.5986  91.4791 15.69927012 24743,6737.243,91.724,361.575,356.641,0.0
55950.0,STARLINK-5911,PAYLOAD,2023-08-19 19:23:36,15.69917744,0.0003821,69.9965,105.1592,271.5209,88.5549,-3.6031e-07,-2.56e-06,0.0,0 STARLINK-5911,1 55950U 23037AN  23231.80806639 -.00000256  00000-0 -36031-6 0  9994,2 55950  69.9965 105.1592 0003821 271.5209  88.5549 15.69917744 24865,6737.269,91.725,361.709,356.56,0.0
55950.0,STARLINK-5911,PAYLOAD,2023-08-20 18:19:52,15.6992523,0.0003489,69.9966,102.4714,268.9086,91.171,1.6122e-05,1.726e-05,0.0,0 STARLINK-5911,1 55950U 23037AN  23232.76380784  .00001726  00000-0  16122-4 0  9996,2 55950  69.9966 102.4714 0003489 268.9086  91.1710 15.69925230 25012,6737.248,91.724,361.464,356.762,0.0
55950.0,STARLINK-5911,PAYLOAD,2023-08-21 00:26:53,15.69906232,0.0003456,69.9975,101.7559,271.2363,88.8436,5.1672e-05,6e-05,0.0,0 STARLINK-5911,1 55950U 23037AN  23233.01867781  .00006000  00000-0  51672-4 0  9991,2 55950  69.9975 101.7559 0003456 271.2363  88.8436 15.69906232 25053,6737.302,91.725,361.496,356.839,0.0
55950.0,STARLINK-5911,PAYLOAD,2023-08-22 00:54:56,15.69912433,0.0003368,69.9973,98.8892,269.5753,90.5057,-1.0091e-07,-2.25e-06,0.0,0 STARLINK-5911,1 55950U 23037AN  23234.03815755 -.00000225  00000-0 -10091-6 0  9995,2 55950  69.9973  98.8892 0003368 269.5753  90.5057 15.69912433 25219,6737.285,91.725,361.419,356.88,0.0
55950.0,STARLINK-5911,PAYLOAD,2023-08-22 14:40:41,15.69926009,0.0003024,69.9996,97.279,263.9473,96.1378,1.3256e-05,1.382e-05,0.0,0 STARLINK-5911,1 55950U 23037AN  23234.61159640  .00001382  00000-0  13256-4 0  9990,2 55950  69.9996  97.2790 0003024 263.9473  96.1378 15.69926009 25302,6737.246,91.724,361.148,357.073,0.0
